[{"ORDINAL":"1","COMMENT":"GENERATED VIA SPACETRACK.ORG API","ORIGINATOR":"JSPOC","NORAD_CAT_ID":"39424","OBJECT_NAME":"CINEMA 2","OBJECT_TYPE":"PAYLOAD","CLASSIFICATION_TYPE":"U","INTLDES":"13066J","EPOCH":"2016-06-22 20:01:08","EPOCH_MICROSECONDS":"692896","MEAN_MOTION":"14.71945941","ECCENTRICITY":"0.0094213","INCLINATION":"97.6691","RA_OF_ASC_NODE":"215.0659","ARG_OF_PERICENTER":"38.9168","MEAN_ANOMALY":"321.8772","EPHEMERIS_TYPE":"0","ELEMENT_SET_NO":"999","REV_AT_EPOCH":"13862","BSTAR":"4.2308e-05","MEAN_MOTION_DOT":"2.34e-06","MEAN_MOTION_DDOT":"0","FILE":"2050785","TLE_LINE0":"0 CINEMA 2","TLE_LINE1":"1 39424U 13066J   16174.83412839 +.00000234 +00000-0 +42308-4 0  9995","TLE_LINE2":"2 39424 097.6691 215.0659 0094213 038.9168 321.8772 14.71945941138629","OBJECT_ID":"2013-066J","OBJECT_NUMBER":"39424","SEMIMAJOR_AXIS":"7032.999","PERIOD":"97.829","APOGEE":"721.124","PERIGEE":"588.604"},{"ORDINAL":"1","COMMENT":"GENERATED VIA SPACETRACK.ORG API","ORIGINATOR":"JSPOC","NORAD_CAT_ID":"39425","OBJECT_NAME":"APRIZESAT 8","OBJECT_TYPE":"PAYLOAD","CLASSIFICATION_TYPE":"U","INTLDES":"13066K","EPOCH":"2016-06-23 03:44:50","EPOCH_MICROSECONDS":"870112","MEAN_MOTION":"14.80821173","ECCENTRICITY":"0.0052178","INCLINATION":"97.68","RA_OF_ASC_NODE":"229.591","ARG_OF_PERICENTER":"1.9978","MEAN_ANOMALY":"358.1434","EPHEMERIS_TYPE":"0","ELEMENT_SET_NO":"999","REV_AT_EPOCH":"13976","BSTAR":"1.8795e-05","MEAN_MOTION_DOT":"9.5e-07","MEAN_MOTION_DDOT":"0","FILE":"2050567","TLE_LINE0":"0 APRIZESAT 8","TLE_LINE1":"1 39425U 13066K   16175.15614433  .00000095  00000-0  18795-4 0  9994","TLE_LINE2":"2 39425  97.6800 229.5910 0052178   1.9978 358.1434 14.80821173139769","OBJECT_ID":"2013-066K","OBJECT_NUMBER":"39425","SEMIMAJOR_AXIS":"7004.870","PERIOD":"97.243","APOGEE":"663.285","PERIGEE":"590.185"},{"ORDINAL":"1","COMMENT":"GENERATED VIA SPACETRACK.ORG API","ORIGINATOR":"JSPOC","NORAD_CAT_ID":"39426","OBJECT_NAME":"CINEMA 3","OBJECT_TYPE":"PAYLOAD","CLASSIFICATION_TYPE":"U","INTLDES":"13066L","EPOCH":"2016-06-22 20:27:31","EPOCH_MICROSECONDS":"980672","MEAN_MOTION":"14.68978744","ECCENTRICITY":"0.010629","INCLINATION":"97.6656","RA_OF_ASC_NODE":"210.7693","ARG_OF_PERICENTER":"50.7878","MEAN_ANOMALY":"310.2707","EPHEMERIS_TYPE":"0","ELEMENT_SET_NO":"999","REV_AT_EPOCH":"13857","BSTAR":"3.6199e-05","MEAN_MOTION_DOT":"1.81e-06","MEAN_MOTION_DDOT":"0","FILE":"2050417","TLE_LINE0":"0 CINEMA 3","TLE_LINE1":"1 39426U 13066L   16174.85245348  .00000181  00000-0  36199-4 0  9990","TLE_LINE2":"2 39426  97.6656 210.7693 0106290  50.7878 310.2707 14.68978744138578","OBJECT_ID":"2013-066L","OBJECT_NUMBER":"39426","SEMIMAJOR_AXIS":"7042.467","PERIOD":"98.027","APOGEE":"739.186","PERIGEE":"589.477"},{"ORDINAL":"1","COMMENT":"GENERATED VIA SPACETRACK.ORG API","ORIGINATOR":"JSPOC","NORAD_CAT_ID":"39427","OBJECT_NAME":"TRITON 1","OBJECT_TYPE":"PAYLOAD","CLASSIFICATION_TYPE":"U","INTLDES":"13066M","EPOCH":"2016-06-23 07:05:30","EPOCH_MICROSECONDS":"996096","MEAN_MOTION":"14.67201715","ECCENTRICITY":"0.0116069","INCLINATION":"97.6667","RA_OF_ASC_NODE":"208.2063","ARG_OF_PERICENTER":"58.2642","MEAN_ANOMALY":"302.9813","EPHEMERIS_TYPE":"0","ELEMENT_SET_NO":"999","REV_AT_EPOCH":"13841","BSTAR":"5.9253e-05","MEAN_MOTION_DOT":"3.2e-06","MEAN_MOTION_DDOT":"0","FILE":"2050676","TLE_LINE0":"0 TRITON 1","TLE_LINE1":"1 39427U 13066M   16175.29549764  .00000320  00000-0  59253-4 0  9990","TLE_LINE2":"2 39427  97.6667 208.2063 0116069  58.2642 302.9813 14.67201715138416","OBJECT_ID":"2013-066M","OBJECT_NUMBER":"39427","SEMIMAJOR_AXIS":"7048.152","PERIOD":"98.146","APOGEE":"751.824","PERIGEE":"588.210"},{"ORDINAL":"1","COMMENT":"GENERATED VIA SPACETRACK.ORG API","ORIGINATOR":"JSPOC","NORAD_CAT_ID":"39428","OBJECT_NAME":"DELFI-N3XT","OBJECT_TYPE":"PAYLOAD","CLASSIFICATION_TYPE":"U","INTLDES":"13066N","EPOCH":"2016-06-22 19:37:51","EPOCH_MICROSECONDS":"628224","MEAN_MOTION":"14.66317858","ECCENTRICITY":"0.0123942","INCLINATION":"97.6704","RA_OF_ASC_NODE":"205.5822","ARG_OF_PERICENTER":"66.6144","MEAN_ANOMALY":"294.8041","EPHEMERIS_TYPE":"0","ELEMENT_SET_NO":"999","REV_AT_EPOCH":"13818","BSTAR":"9.519e-05","MEAN_MOTION_DOT":"5.4e-06","MEAN_MOTION_DDOT":"0","FILE":"2050420","TLE_LINE0":"0 DELFI-N3XT","TLE_LINE1":"1 39428U 13066N   16174.81795866  .00000540  00000-0  95190-4 0  9998","TLE_LINE2":"2 39428  97.6704 205.5822 0123942  66.6144 294.8041 14.66317858138181","OBJECT_ID":"2013-066N","OBJECT_NUMBER":"39428","SEMIMAJOR_AXIS":"7050.984","PERIOD":"98.205","APOGEE":"760.240","PERIGEE":"585.458"},{"ORDINAL":"1","COMMENT":"GENERATED VIA SPACETRACK.ORG API","ORIGINATOR":"JSPOC","NORAD_CAT_ID":"39429","OBJECT_NAME":"DOVE 3","OBJECT_TYPE":"PAYLOAD","CLASSIFICATION_TYPE":"U","INTLDES":"13066P","EPOCH":"2016-06-23 10:09:49","EPOCH_MICROSECONDS":"774464","MEAN_MOTION":"14.60108391","ECCENTRICITY":"0.0149284","INCLINATION":"97.6685","RA_OF_ASC_NODE":"197.5409","ARG_OF_PERICENTER":"90.9346","MEAN_ANOMALY":"270.8956","EPHEMERIS_TYPE":"0","ELEMENT_SET_NO":"999","REV_AT_EPOCH":"13775","BSTAR":"0.00010995","MEAN_MOTION_DOT":"5.71e-06","MEAN_MOTION_DDOT":"0","FILE":"2050674","TLE_LINE0":"0 DOVE 3","TLE_LINE1":"1 39429U 13066P   16175.42349276  .00000571  00000-0  10995-3 0  9990","TLE_LINE2":"2 39429  97.6685 197.5409 0149284  90.9346 270.8956 14.60108391137757","OBJECT_ID":"2013-066P","OBJECT_NUMBER":"39429","SEMIMAJOR_AXIS":"7070.961","PERIOD":"98.622","APOGEE":"798.384","PERIGEE":"587.267"},{"ORDINAL":"1","COMMENT":"GENERATED VIA SPACETRACK.ORG API","ORIGINATOR":"JSPOC","NORAD_CAT_ID":"39430","OBJECT_NAME":"GOMX 1","OBJECT_TYPE":"PAYLOAD","CLASSIFICATION_TYPE":"U","INTLDES":"13066Q","EPOCH":"2016-06-23 07:00:25","EPOCH_MICROSECONDS":"7904","MEAN_MOTION":"14.58606981","ECCENTRICITY":"0.0154011","INCLINATION":"97.6691","RA_OF_ASC_NODE":"195.7747","ARG_OF_PERICENTER":"96.2344","MEAN_ANOMALY":"265.6428","EPHEMERIS_TYPE":"0","ELEMENT_SET_NO":"999","REV_AT_EPOCH":"13761","BSTAR":"8.4303e-05","MEAN_MOTION_DOT":"4.16e-06","MEAN_MOTION_DDOT":"0","FILE":"2050676","TLE_LINE0":"0 GOMX 1","TLE_LINE1":"1 39430U 13066Q   16175.29195611  .00000416  00000-0  84303-4 0  9992","TLE_LINE2":"2 39430  97.6691 195.7747 0154011  96.2344 265.6428 14.58606981137618","OBJECT_ID":"2013-066Q","OBJECT_NUMBER":"39430","SEMIMAJOR_AXIS":"7075.812","PERIOD":"98.724","APOGEE":"806.652","PERIGEE":"588.702"},{"ORDINAL":"1","COMMENT":"GENERATED VIA SPACETRACK.ORG API","ORIGINATOR":"JSPOC","NORAD_CAT_ID":"39431","OBJECT_NAME":"BRITE-PL","OBJECT_TYPE":"PAYLOAD","CLASSIFICATION_TYPE":"U","INTLDES":"13066R","EPOCH":"2016-06-22 21:39:54","EPOCH_MICROSECONDS":"152640","MEAN_MOTION":"14.46726063","ECCENTRICITY":"0.0203736","INCLINATION":"97.6779","RA_OF_ASC_NODE":"179.2865","ARG_OF_PERICENTER":"147.9383","MEAN_ANOMALY":"213.4396","EPHEMERIS_TYPE":"0","ELEMENT_SET_NO":"999","REV_AT_EPOCH":"13630","BSTAR":"2.4462e-05","MEAN_MOTION_DOT":"6.9e-07","MEAN_MOTION_DDOT":"0","FILE":"2050785","TLE_LINE0":"0 BRITE-PL","TLE_LINE1":"1 39431U 13066R   16174.90271010 +.00000069 +00000-0 +24462-4 0  9992","TLE_LINE2":"2 39431 097.6779 179.2865 0203736 147.9383 213.4396 14.46726063136301","OBJECT_ID":"2013-066R","OBJECT_NUMBER":"39431","SEMIMAJOR_AXIS":"7114.498","PERIOD":"99.535","APOGEE":"881.311","PERIGEE":"591.415"},{"ORDINAL":"1","COMMENT":"GENERATED VIA SPACETRACK.ORG API","ORIGINATOR":"JSPOC","NORAD_CAT_ID":"39432","OBJECT_NAME":"ICUBE 1","OBJECT_TYPE":"PAYLOAD","CLASSIFICATION_TYPE":"U","INTLDES":"13066S","EPOCH":"2016-06-22 20:37:27","EPOCH_MICROSECONDS":"256800","MEAN_MOTION":"14.89337389","ECCENTRICITY":"0.0031961","INCLINATION":"97.6959","RA_OF_ASC_NODE":"240.4284","ARG_OF_PERICENTER":"337.6132","MEAN_ANOMALY":"22.3688","EPHEMERIS_TYPE":"0","ELEMENT_SET_NO":"999","REV_AT_EPOCH":"13917","BSTAR":"5.6075e-05","MEAN_MOTION_DOT":"4.81e-06","MEAN_MOTION_DDOT":"0","FILE":"2050785","TLE_LINE0":"0 ICUBE 1","TLE_LINE1":"1 39432U 13066S   16174.85934325 +.00000481 +00000-0 +56075-4 0  9995","TLE_LINE2":"2 39432 097.6959 240.4284 0031961 337.6132 022.3688 14.89337389139172","OBJECT_ID":"2013-066S","OBJECT_NUMBER":"39432","SEMIMAJOR_AXIS":"6978.141","PERIOD":"96.687","APOGEE":"622.309","PERIGEE":"577.703"},{"ORDINAL":"1","COMMENT":"GENERATED VIA SPACETRACK.ORG API","ORIGINATOR":"JSPOC","NORAD_CAT_ID":"39433","OBJECT_NAME":"HUMSAT D","OBJECT_TYPE":"PAYLOAD","CLASSIFICATION_TYPE":"U","INTLDES":"13066T","EPOCH":"2016-06-22 21:56:40","EPOCH_MICROSECONDS":"472448","MEAN_MOTION":"14.90839561","ECCENTRICITY":"0.0030693","INCLINATION":"97.6976","RA_OF_ASC_NODE":"241.7696","ARG_OF_PERICENTER":"332.8662","MEAN_ANOMALY":"27.0951","EPHEMERIS_TYPE":"0","ELEMENT_SET_NO":"999","REV_AT_EPOCH":"13929","BSTAR":"6.6721e-05","MEAN_MOTION_DOT":"6.06e-06","MEAN_MOTION_DDOT":"0","FILE":"2050785","TLE_LINE0":"0 HUMSAT D","TLE_LINE1":"1 39433U 13066T   16174.91435732 +.00000606 +00000-0 +66721-4 0  9999","TLE_LINE2":"2 39433 097.6976 241.7696 0030693 332.8662 027.0951 14.90839561139298","OBJECT_ID":"2013-066T","OBJECT_NUMBER":"39433","SEMIMAJOR_AXIS":"6973.453","PERIOD":"96.589","APOGEE":"616.722","PERIGEE":"573.914"},{"ORDINAL":"1","COMMENT":"GENERATED VIA SPACETRACK.ORG API","ORIGINATOR":"JSPOC","NORAD_CAT_ID":"39434","OBJECT_NAME":"DOVE 4","OBJECT_TYPE":"PAYLOAD","CLASSIFICATION_TYPE":"U","INTLDES":"13066U","EPOCH":"2016-06-23 04:21:55","EPOCH_MICROSECONDS":"543968","MEAN_MOTION":"15.00349888","ECCENTRICITY":"0.0027223","INCLINATION":"97.7059","RA_OF_ASC_NODE":"249.3884","ARG_OF_PERICENTER":"297.6875","MEAN_ANOMALY":"62.1591","EPHEMERIS_TYPE":"0","ELEMENT_SET_NO":"999","REV_AT_EPOCH":"14096","BSTAR":"0.00013389","MEAN_MOTION_DOT":"1.631e-05","MEAN_MOTION_DDOT":"0","FILE":"2050569","TLE_LINE0":"0 DOVE 4","TLE_LINE1":"1 39434U 13066U   16175.18189287  .00001631  00000-0  13389-3 0  9991","TLE_LINE2":"2 39434  97.7059 249.3884 0027223 297.6875  62.1591 15.00349888140960","OBJECT_ID":"2013-066U","OBJECT_NUMBER":"39434","SEMIMAJOR_AXIS":"6943.953","PERIOD":"95.977","APOGEE":"584.722","PERIGEE":"546.915"}]